GOES 1 (SMS-C) [-]      
1 08366U 75100A   20126.97044994 -.00000228  00000-0  00000-0 0  9996
2 08366  10.0508 305.5363 0002580   8.2628 174.0080  1.00245020162671
GOES 2 [-]              
1 10061U 77048A   20126.83908350 -.00000270  00000-0  00000+0 0  9990
2 10061  11.4952 315.6040 0015767   5.0767 181.1873  0.99401182101311
GOES 3 [-]              
1 10953U 78062A   20126.97507344 -.00000223  00000-0  00000-0 0  9999
2 10953  11.7462 319.5952 0004219  46.4078 146.8061  0.99360305106345
GOES 4 [-]              
1 11964U 80074A   20127.23660389 -.00000137  00000-0  00000-0 0  9991
2 11964  12.6303 323.3498 0036184  46.8767 308.0962  0.99232809105275
GOES 5 [-]              
1 12472U 81049A   20127.23452265 -.00000295  00000-0  00000-0 0  9996
2 12472  13.1787 334.0498 0003236  13.6074 252.3276  1.00250361100456
GOES 6 [-]              
1 14050U 83041A   20127.04372809 -.00000265  00000-0  00000-0 0  9995
2 14050  13.5892 339.1254 0003706  57.1440 125.7153  1.00248733193627
GOES 7 [-]              
1 17561U 87022A   20127.25575593  .00000069  00000-0  00000-0 0  9997
2 17561  14.8120 355.3272 0008383  14.3331 149.8502  0.99901960104650
GOES 8 [-]              
1 23051U 94022A   20126.45775319 -.00000044  00000-0  00000+0 0  9998
2 23051  12.5028  29.8965 0008457 339.3154 226.6560  0.98905615102038
GOES 9 [-]              
1 23581U 95025A   20127.19904810 -.00000014  00000-0  00000-0 0  9990
2 23581  11.9916  29.8448 0006363  35.4023 272.2070  0.98799467 90691
GOES 10 [-]             
1 24786U 97019A   20127.19806862  .00000014  00000-0  00000-0 0  9990
2 24786  10.5557  35.4690 0023591 189.1696 324.6426  0.99120373 83933
GOES 11 [-]             
1 26352U 00022A   20127.09122668 -.00000235  00000-0  00000-0 0  9999
2 26352   7.0814  65.2519 0002467 277.7887 259.2350  0.99045484 30353
GOES 12 [-]             
1 26871U 01031A   20127.05820925 -.00000206  00000-0  00000-0 0  9991
2 26871   8.1645  53.0322 0008132 290.2130 256.4446  0.99140713 68623
GOES 13 [B]             
1 29155U 06018A   20127.13406528  .00000031  00000-0  00000-0 0  9992
2 29155   0.2405 268.8027 0004136 291.0559 134.0075  1.00272199 20972
GOES 14 [S]             
1 35491U 09033A   20127.26517390 -.00000103  00000-0  00000-0 0  9997
2 35491   0.2218  98.0694 0007839 125.5989 352.2054  1.00270651 39734
GOES 15 [+]             
1 36411U 10008A   20127.25946825  .00000046  00000-0  00000-0 0  9997
2 36411   0.2156 274.7542 0002543 144.0538 130.8923  1.00269129 37287
GOES 16 [+]             
1 41866U 16071A   20127.46824497 -.00000257  00000-0  00000+0 0  9990
2 41866   0.0127 272.6158 0001187 167.2557 238.2773  1.00272796 12726
GOES-S [+]              
1 43226U 18022A   20127.56542206  .00000088  00000-0  00000+0 0  9997
2 43226   0.0123 273.2847 0000760 151.1989 226.7501  1.00272742  8045
